{
"type": "FeatureCollection",
"name": "queensland",
"crs": { "type": "name", "properties": { "name": "urn:ogc:def:crs:OGC:1.3:CRS84" } },
"features": [
{ "type": "Feature", "properties": { }, "geometry": { "type": "Polygon", "coordinates": [ [ [ 152.69, -26.26 ], [ 152.687592363336108, -26.309008570164782 ], [ 152.680392640201603, -26.357545161008066 ], [ 152.668470167866104, -26.405142338627233 ], [ 152.651939766255651, -26.451341716182547 ], [ 152.63096063217418, -26.495698368412999 ], [ 152.605734806151276, -26.537785116509802 ], [ 152.576505226681377, -26.577196642081823 ], [ 152.543553390593274, -26.613553390593275 ], [ 152.507196642081823, -26.64650522668137 ], [ 152.467785116509788, -26.675734806151276 ], [ 152.425698368413009, -26.70096063217418 ], [ 152.381341716182533, -26.721939766255645 ], [ 152.335142338627236, -26.738470167866105 ], [ 152.287545161008069, -26.750392640201618 ], [ 152.239008570164771, -26.757592363336101 ], [ 152.19, -26.76 ], [ 152.140991429835225, -26.757592363336101 ], [ 152.092454838991927, -26.750392640201618 ], [ 152.04485766137276, -26.738470167866105 ], [ 151.998658283817463, -26.721939766255645 ], [ 151.954301631586986, -26.70096063217418 ], [ 151.912214883490208, -26.675734806151276 ], [ 151.872803357918173, -26.64650522668137 ], [ 151.836446609406721, -26.613553390593275 ], [ 151.803494773318619, -26.577196642081823 ], [ 151.77426519384872, -26.537785116509802 ], [ 151.749039367825816, -26.495698368412999 ], [ 151.728060233744344, -26.451341716182547 ], [ 151.711529832133891, -26.405142338627233 ], [ 151.699607359798392, -26.357545161008066 ], [ 151.692407636663887, -26.309008570164782 ], [ 151.69, -26.26 ], [ 151.692407636663887, -26.210991429835222 ], [ 151.699607359798392, -26.162454838991938 ], [ 151.711529832133891, -26.114857661372771 ], [ 151.728060233744344, -26.068658283817456 ], [ 151.749039367825816, -26.024301631587004 ], [ 151.77426519384872, -25.982214883490201 ], [ 151.803494773318619, -25.94280335791818 ], [ 151.836446609406721, -25.906446609406728 ], [ 151.872803357918173, -25.873494773318633 ], [ 151.912214883490208, -25.844265193848727 ], [ 151.954301631586986, -25.819039367825823 ], [ 151.998658283817463, -25.798060233744359 ], [ 152.04485766137276, -25.781529832133899 ], [ 152.092454838991927, -25.769607359798385 ], [ 152.140991429835225, -25.762407636663902 ], [ 152.19, -25.76 ], [ 152.239008570164771, -25.762407636663902 ], [ 152.287545161008069, -25.769607359798385 ], [ 152.335142338627236, -25.781529832133899 ], [ 152.381341716182533, -25.798060233744359 ], [ 152.425698368413009, -25.819039367825823 ], [ 152.467785116509788, -25.844265193848727 ], [ 152.507196642081823, -25.873494773318633 ], [ 152.543553390593274, -25.906446609406728 ], [ 152.576505226681377, -25.94280335791818 ], [ 152.605734806151276, -25.982214883490201 ], [ 152.63096063217418, -26.024301631587001 ], [ 152.651939766255651, -26.068658283817456 ], [ 152.668470167866104, -26.114857661372771 ], [ 152.680392640201603, -26.162454838991938 ], [ 152.687592363336108, -26.210991429835222 ], [ 152.69, -26.26 ] ] ] } }
]
}
